{
  "62425": {
    "noradId": "62425",
    "tle": [
      "1 62425C 24249S   26048.81923611  .00026331  00000+0  95465-3 0   482",
      "2 62425  43.0013  62.7311 0001304 256.7839 182.2412 15.27519896    14"
    ]
  },
  "62426": {
    "noradId": "62426",
    "tle": [
      "1 62426C 24249T   26048.79284722  .00012617  00000+0  45707-3 0   489",
      "2 62426  43.0016  66.9309 0001355 271.6451 137.1557 15.27561109    16"
    ]
  },
  "62427": {
    "noradId": "62427",
    "tle": [
      "1 62427C 24249U   26048.79215278  .00006207  00000+0  22483-3 0   484",
      "2 62427  43.0037  66.7517 0001354 269.6036 213.1851 15.27567920    13"
    ]
  },
  "62428": {
    "noradId": "62428",
    "tle": [
      "1 62428C 24249V   26048.79770833  .00003565  00000+0  12914-3 0   480",
      "2 62428  42.9994  74.3359 0001372 261.0351 320.5550 15.27567362    18"
    ]
  },
  "62429": {
    "noradId": "62429",
    "tle": [
      "1 62429C 24249W   26048.81923611  .00001422  00000+0  51513-4 0   487",
      "2 62429  43.0001  66.2376 0001471 267.6403 152.8309 15.27580101    13"
    ]
  },
  "62432": {
    "noradId": "62432",
    "tle": [
      "1 62432C 24251A   26048.79909722 -.00015850  00000+0 -53431-3 0   480",
      "2 62432  53.1568  64.8337 0001216  82.5856 267.2826 15.30200165    19"
    ]
  },
  "62433": {
    "noradId": "62433",
    "tle": [
      "1 62433C 24251B   26048.79493056 -.00002574  00000+0 -86741-4 0   489",
      "2 62433  53.1572  67.8360 0001279  88.2069 165.3290 15.30196463    10"
    ]
  },
  "62434": {
    "noradId": "62434",
    "tle": [
      "1 62434C 24251C   26048.79284722  .00010440  00000+0  35185-3 0   482",
      "2 62434  53.1600  67.4376 0001280  86.9048   4.5334 15.30183569    16"
    ]
  },
  "62435": {
    "noradId": "62435",
    "tle": [
      "1 62435C 24251D   26048.79770833  .00001704  00000+0  57438-4 0   485",
      "2 62435  53.1568  67.7892 0001287  86.4018 199.8972 15.30192272    12"
    ]
  },
  "62436": {
    "noradId": "62436",
    "tle": [
      "1 62436C 24251E   26048.79423611 -.00002186  00000+0 -73668-4 0   485",
      "2 62436  53.1576  67.6705 0001281  85.2346 251.7195 15.30195173    17"
    ]
  },
  "62437": {
    "noradId": "62437",
    "tle": [
      "1 62437C 24251F   26048.79701389 -.00002106  00000+0 -70963-4 0   484",
      "2 62437  53.1593  65.0011 0001244  84.2871 137.7904 15.30198383    17"
    ]
  },
  "62438": {
    "noradId": "62438",
    "tle": [
      "1 62438C 24251G   26048.79423611 -.00002862  00000+0 -96451-4 0   483",
      "2 62438  53.1589  67.5864 0001343  86.4671 291.1996 15.30196502    15"
    ]
  },
  "62439": {
    "noradId": "62439",
    "tle": [
      "1 62439C 24251H   26048.79493056 -.00001621  00000+0 -54643-4 0   483",
      "2 62439  53.1595  68.0232 0001327  84.1254  76.3394 15.30193875    17"
    ]
  },
  "62440": {
    "noradId": "62440",
    "tle": [
      "1 62440C 24251J   26048.79909722  .00007592  00000+0  25583-3 0   488",
      "2 62440  53.1599  67.3574 0001347  79.7141  69.4410 15.30187780    11"
    ]
  },
  "62441": {
    "noradId": "62441",
    "tle": [
      "1 62441C 24251K   26048.79701389  .00013700  00000+0  46140-3 0   488",
      "2 62441  53.1585  67.6003 0001376  83.8350 297.3938 15.30202365    11"
    ]
  },
  "62442": {
    "noradId": "62442",
    "tle": [
      "1 62442C 24251L   26048.81645833  .00000990  00000+0  33367-4 0   488",
      "2 62442  53.1574  67.5983 0001257  84.8367 357.1564 15.30192368    14"
    ]
  },
  "62443": {
    "noradId": "62443",
    "tle": [
      "1 62443C 24251M   26048.79284722 -.00010220  00000+0 -34420-3 0   481",
      "2 62443  53.1567  67.7906 0001296  91.0706 179.9908 15.30226754    13"
    ]
  },
  "62444": {
    "noradId": "62444",
    "tle": [
      "1 62444C 24251N   26048.79354167  .00008626  00000+0  29075-3 0   488",
      "2 62444  53.1584  65.4199 0001587  86.9407 307.2788 15.30180772    17"
    ]
  },
  "62445": {
    "noradId": "62445",
    "tle": [
      "1 62445C 24251P   26048.79562500 -.00005213  00000+0 -17567-3 0   485",
      "2 62445  53.1587  67.9677 0001297  86.5721 100.9892 15.30200600    19"
    ]
  },
  "62446": {
    "noradId": "62446",
    "tle": [
      "1 62446C 24251Q   26048.79215278  .00001129  00000+0  38060-4 0   485",
      "2 62446  53.1586  67.6067 0001333  91.9292 268.4381 15.30192475    16"
    ]
  },
  "62447": {
    "noradId": "62447",
    "tle": [
      "1 62447C 24251R   26048.79354167  .00003744  00000+0  12617-3 0   481",
      "2 62447  53.1594  67.5185 0001384  87.2542 321.4899 15.30189952    18"
    ]
  },
  "62448": {
    "noradId": "62448",
    "tle": [
      "1 62448C 24251S   26048.79423611  .00005648  00000+0  19034-3 0   488",
      "2 62448  53.1596  68.0479 0001354  79.9473 349.5786 15.30188117    19"
    ]
  },
  "62449": {
    "noradId": "62449",
    "tle": [
      "1 62449C 24251T   26048.79770833  .00002255  00000+0  76004-4 0   482",
      "2 62449  53.1583  67.6054 0001402  83.5368 295.8207 15.30190577    12"
    ]
  },
  "62450": {
    "noradId": "62450",
    "tle": [
      "1 62450C 24251U   26048.79909722  .00003167  00000+0  10673-3 0   487",
      "2 62450  53.1589  67.5376 0001335  85.4668 330.6292 15.30190358    14"
    ]
  },
  "62451": {
    "noradId": "62451",
    "tle": [
      "1 62451C 24251V   26048.79215278 -.00000344  00000+0 -11579-4 0   487",
      "2 62451  53.1578  67.9074 0001256  89.8976 119.2369 15.30196487    19"
    ]
  },
  "62452": {
    "noradId": "62452",
    "tle": [
      "1 62452C 24251W   26048.79493056  .00000317  00000+0  10672-4 0   481",
      "2 62452  53.1597  68.0514 0001277  83.3562  59.6682 15.30190849    16"
    ]
  },
  "62453": {
    "noradId": "62453",
    "tle": [
      "1 62453C 24251X   26048.79631944  .00002996  00000+0  10097-3 0   487",
      "2 62453  53.1595  67.5189 0001385  80.5137 337.7257 15.30189273    11"
    ]
  },
  "62462": {
    "noradId": "62462",
    "tle": [
      "1 62462C 24254A   26048.82618056  .00037624  00000+0  29243-3 0   482",
      "2 62462  43.0006 343.1074 0001605 243.5445  87.8504 15.70784849    12"
    ]
  },
  "62463": {
    "noradId": "62463",
    "tle": [
      "1 62463C 24254B   26048.82756944  .00048006  00000+0  37311-3 0   483",
      "2 62463  43.0005 343.1727 0001595 248.4127  60.7953 15.70775383    17"
    ]
  },
  "62465": {
    "noradId": "62465",
    "tle": [
      "1 62465C 24254D   26048.82340278  .00035686  00000+0  27734-3 0   482",
      "2 62465  43.0006 342.9730 0001667 265.0447 110.7437 15.70788160    11"
    ]
  },
  "62466": {
    "noradId": "62466",
    "tle": [
      "1 62466C 24254E   26048.82409722  .00038732  00000+0  30096-3 0   483",
      "2 62466  43.0003 342.3700 0001618 266.6241 353.5711 15.70789845    18"
    ]
  },
  "62467": {
    "noradId": "62467",
    "tle": [
      "1 62467C 24254F   26048.82618056  .00047171  00000+0  36656-3 0   481",
      "2 62467  43.0006 343.0300 0001572 258.8617 102.5965 15.70779571    13"
    ]
  },
  "62468": {
    "noradId": "62468",
    "tle": [
      "1 62468C 24254G   26048.82201389  .00033643  00000+0  26144-3 0   489",
      "2 62468  43.0005 342.7556 0001649 258.4029 199.6959 15.70793174    15"
    ]
  },
  "62469": {
    "noradId": "62469",
    "tle": [
      "1 62469C 24254H   26048.82409722  .00036668  00000+0  28506-3 0   485",
      "2 62469  43.0005 342.5932 0001638 267.7125 262.3413 15.70780670    10"
    ]
  },
  "62470": {
    "noradId": "62470",
    "tle": [
      "1 62470C 24254J   26048.82479167  .00055470  00000+0  43112-3 0   489",
      "2 62470  43.0005 342.8127 0001804 244.6162 199.1750 15.70767716    18"
    ]
  },
  "62471": {
    "noradId": "62471",
    "tle": [
      "1 62471C 24254K   26048.82618056  .00056583  00000+0  43979-3 0   489",
      "2 62471  43.0007 342.7420 0002175 270.1963 206.3647 15.70764212    15"
    ]
  },
  "62472": {
    "noradId": "62472",
    "tle": [
      "1 62472C 24254L   26048.82756944  .00040671  00000+0  31613-3 0   482",
      "2 62472  43.0005 342.4209 0001601 242.5276   7.2993 15.70780638    11"
    ]
  },
  "62473": {
    "noradId": "62473",
    "tle": [
      "1 62473C 24254M   26048.82618056 -.00038614  00000+0 -30024-3 0   485",
      "2 62473  43.0007 342.8775 0001613 256.4971 165.1246 15.70850839    11"
    ]
  },
  "62474": {
    "noradId": "62474",
    "tle": [
      "1 62474C 24254N   26048.82270833  .00024775  00000+0  19252-3 0   484",
      "2 62474  43.0004 342.6737 0001555 250.2121 241.8832 15.70801833    12"
    ]
  },
  "62475": {
    "noradId": "62475",
    "tle": [
      "1 62475C 24254P   26048.79840278  .00029096  00000+0  10541-2 0   489",
      "2 62475  43.0019 132.0115 0001373 248.8423  80.5389 15.27540869    12"
    ]
  },
  "62476": {
    "noradId": "62476",
    "tle": [
      "1 62476C 24254Q   26048.79215278  .00029949  00000+0  10850-2 0   486",
      "2 62476  43.0007 128.8875 0001501 280.6117 244.3199 15.27541057    12"
    ]
  },
  "62477": {
    "noradId": "62477",
    "tle": [
      "1 62477C 24254R   26048.79423611  .00027026  00000+0  97929-3 0   486",
      "2 62477  43.0013 128.3514 0001357 269.3776 126.3801 15.27537786    12"
    ]
  },
  "62478": {
    "noradId": "62478",
    "tle": [
      "1 62478C 24254S   26048.79423611  .00025870  00000+0  93709-3 0   484",
      "2 62478  43.0024 128.7372 0001581 262.8395 330.1967 15.27549651    17"
    ]
  },
  "62479": {
    "noradId": "62479",
    "tle": [
      "1 62479C 24254T   26048.79701389  .00017668  00000+0  63967-3 0   485",
      "2 62479  43.0009 121.1390 0001285 266.6449 259.3134 15.27573838    13"
    ]
  },
  "62480": {
    "noradId": "62480",
    "tle": [
      "1 62480C 24254U   26048.79284722  .00026795  00000+0  97071-3 0   488",
      "2 62480  42.9998 128.2566 0001426 276.1158 154.4117 15.27545468    17"
    ]
  }
}